satname,norad_id,inclination_deg,eccentricity,mean_motion_rev_per_day,perigee_km,apogee_km,l1,l2
STARLINK-1284,45390,53.0542,0.0001466,15.16293068,516.0448710065266,518.066541508002,1 45390U 20019AG  26010.00002315  .01829464  00000+0  84776-1 0  9999,2 45390  53.0542  49.9047 0001466 129.9732 132.3623 15.16293068  5797
STARLINK-1297,45395,53.0553,4.95e-05,15.14151484,523.214151125776,523.8974187114836,1 45395U 20019AM  26010.00002315  .01798073  00000+0  88632-1 0  9990,2 45395  53.0553  49.9837 0000495  63.8765 314.4768 15.14151484  5790
STARLINK-1307,45397,53.0556,0.0001826,15.18623764,508.7412312630995,511.2567785320889,1 45397U 20019AP  26010.00002315  .01598651  00000+0  69137-1 0  9991,2 45397  53.0556  49.8188 0001826  87.9977  55.9400 15.18623764  5759
STARLINK-1255,45399,53.0479,0.0005214,15.42433802,435.3743711879051,442.4832073929774,1 45399U 20019AR  26009.35933884  .00115041  00000+0  25887-2 0  9995,2 45399  53.0479  25.9335 0005214  43.9816 316.1603 15.42433802321255
STARLINK-1260,45404,53.0549,0.0001415,15.0640459,546.217555454703,548.1774251154548,1 45404U 20019AW  26009.33646501  .00026348  00000+0  17809-2 0  9993,2 45404  53.0549  43.0631 0001415  85.1912 274.9239 15.06404590320914
STARLINK-1263,45405,53.0534,0.0001269,15.06385267,546.3778803672003,548.1355452915159,1 45405U 20019AX  26009.38804614 -.00000797  00000+0 -34618-4 0  9991,2 45405  53.0534  42.8334 0001269  89.3162 270.7972 15.06385267320924
STARLINK-1265,45406,53.0571,0.0001772,15.06408314,545.9589095936917,548.4132440921239,1 45406U 20019AY  26009.32906727  .00002366  00000+0  17764-3 0  9998,2 45406  53.0571  43.1010 0001772  92.5360 267.5832 15.06408314320913
STARLINK-1278,45408,53.0506,0.0004122,15.44219041,430.8659042398094,436.4815610077849,1 45408U 20019BA  26009.38546285  .00022669  00000+0  49347-3 0  9995,2 45408  53.0506  54.8562 0004122 301.4766  58.5836 15.44219041320762
STARLINK-1296,45412,53.0549,0.0001478,15.06407999,546.1634793703797,548.2106051572728,1 45412U 20019BE  26009.33275416  .00001900  00000+0  14640-3 0  9993,2 45412  53.0549  43.0808 0001478  92.3466 267.7692 15.06407999320911
STARLINK-1298,45413,53.0436,0.0007063,15.69948751,354.2851523577365,363.8020937058327,1 45413U 20019BF  26010.00002315  .00180003  00000+0  14426-2 0  9999,2 45413  53.0436 349.3244 0007063  91.4609 335.9903 15.69948751  5905
STARLINK-1309,45414,53.0544,0.0001308,15.06400267,546.3049041375107,548.1165751061963,1 45414U 20019BG  26009.34750252  .00000464  00000+0  50041-4 0  9992,2 45414  53.0544  43.0171 0001308  92.3703 267.7436 15.06400267320903
STARLINK-1316,45415,53.0569,0.0001316,15.06413115,546.2599920632829,548.0827332243307,1 45415U 20019BH  26009.37329785  .00000330  00000+0  41057-4 0  9998,2 45415  53.0569  42.9000 0001316  98.3281 261.7858 15.06413115320948
STARLINK-1318,45416,53.0477,0.0005153,15.76617725,336.5698213339101,343.4935659895973,1 45416U 20019BJ  26010.00002315  .00150374  00000+0  91041-3 0  9999,2 45416  53.0477 337.2168 0005153  85.4361  59.8071 15.76617725  6035
STARLINK-1286,45417,53.051,0.0001739,15.44448051,431.81589122565947,434.18480479529717,1 45417U 20019BK  26009.41283230  .00041925  00000+0  89591-3 0  9998,2 45417  53.0510  54.4249 0001739 334.9281  25.1640 15.44448051321049
STARLINK-1308,45419,53.0554,0.0001224,15.16697482,514.9861353645838,516.6737784756378,1 45419U 20019BM  26010.00002315  .01250396  00000+0  57584-1 0  9990,2 45419  53.0554  69.8374 0001224  97.6646   5.7338 15.16697482  5797
STARLINK-1329,45531,53.0569,0.0004998,15.45026041,427.8981995021468,434.70491428361765,1 45531U 20025A   26009.25797351  .00166162  00000+0  33995-2 0  9995,2 45531  53.0569   6.5364 0004998  47.1601 312.9824 15.45026041316233
STARLINK-1338,45532,53.0551,0.0003198,15.43117431,434.7357977271613,439.0947051471803,1 45532U 20025B   26009.27003898  .00129760  00000+0  28478-2 0  9997,2 45532  53.0551   9.3126 0003198  58.3838 301.7479 15.43117431316198
STARLINK-1350,45535,53.0749,0.0002205,15.34466437,460.9974208332287,464.0141443003404,1 45535U 20025E   26009.55150638  .00013049  00000+0  39582-3 0  9997,2 45535  53.0749 310.5271 0002205  96.7616 263.3637 15.34466437317076
STARLINK-1362,45538,53.0563,0.0001544,15.06408999,546.1147078777558,548.2532469955877,1 45538U 20025H   26009.28662304  .00001604  00000+0  12654-3 0  9993,2 45538  53.0563  13.0090 0001544  96.7356 263.3809 15.06408999316149
STARLINK-1368,45540,53.0551,0.0001478,15.06406374,546.1684589856413,548.2155862447262,1 45540U 20025K   26009.29128698  .00001683  00000+0  13186-3 0  9998,2 45540  53.0551  13.2683 0001478  95.6097 264.5060 15.06406374316131
STARLINK-1371,45542,53.0552,0.0001388,15.38327081,450.10807367003144,452.0038576372972,1 45542U 20025M   26010.00002315  .00084189  00000+0  21816-2 0  9998,2 45542  53.0552   7.9733 0001388  96.0680 312.9914 15.38327081  5743
STARLINK-1372,45543,53.0557,0.0001389,15.06407704,546.2260187534303,548.1498740235384,1 45543U 20025N   26009.29865929 -.00000421  00000+0 -93714-5 0  9994,2 45543  53.0557  13.2346 0001389  92.9331 267.1817 15.06407704315235
STARLINK-1373,45544,53.0614,0.0001278,15.3653377,455.4951166631754,457.2420162859662,1 45544U 20025P   26010.00002315  .01058332  00000+0  26833-1 0  9995,2 45544  53.0614   8.4726 0001278  91.4633 123.3094 15.36533770  5797
STARLINK-1294,45551,53.0403,0.0003492,15.75080697,342.05404806153183,346.74906899080725,1 45551U 20025W   26009.02913799  .00124799  00000+0  81162-3 0  9998,2 45551  53.0403 277.6003 0003492 171.1714 188.9367 15.75080697317463
STARLINK-1325,45554,53.043,0.0008805,15.91521264,292.1468108086792,303.9035323928683,1 45554U 20025Z   26010.00002315  .00310574  47271-4  94344-3 0  9994,2 45554  53.0430 261.3669 0008805 140.5214 130.5007 15.91521264  5963
STARLINK-1327,45555,53.0545,0.0001611,15.42616489,437.29242094769234,439.4887061286645,1 45555U 20025AA  26010.00002315  .00024073  00000+0  55240-3 0  9997,2 45555  53.0545 347.4287 0001611  91.5850  86.6349 15.42616489  5748
STARLINK-1356,45564,53.0557,0.0001182,15.101375,534.9630653740905,536.5975154215403,1 45564U 20025AK  26010.00002315  .00027269  00000+0  16646-2 0  9993,2 45564  53.0557 350.0559 0001182  82.8381 168.9007 15.10137500  5740
STARLINK-1357,45565,53.0595,0.0005207,15.44931673,428.0330258677386,435.12466394862713,1 45565U 20025AL  26009.17854487  .00103391  00000+0  21426-2 0  9998,2 45565  53.0595 323.2904 0005207  76.5598 283.5988 15.44931673316838
STARLINK-1361,45567,53.0553,0.0001207,15.09774013,536.0553130365461,537.7246005439156,1 45567U 20025AN  26010.00002315  .01196161  00000+0  67975-1 0  9995,2 45567  53.0553 350.0569 0001207  94.3730  57.1022 15.09774013  5799
STARLINK-1363,45568,53.0508,0.0008495,15.53843592,399.7535358777286,411.2789627483098,1 45568U 20025AP  26009.60122247  .00036383  00000+0  56006-3 0  9990,2 45568  53.0508 328.8965 0008495  22.3435 337.7944 15.53843592316784
STARLINK-1366,45569,53.0503,0.0011613,15.53630356,398.2583627410504,414.0155173942512,1 45569U 20025AQ  26010.00002315  .00092580  00000+0  14130-2 0  9992,2 45569  53.0503 327.5668 0011613  51.7028  22.7910 15.53630356  5912
STARLINK-1376,45570,53.107,0.0001269,15.18151048,510.5545122308613,512.3030840304264,1 45570U 20025AR  26010.00002315  .01510676  00000+0  66585-1 0  9996,2 45570  53.1070 349.8368 0001269  99.6599 193.9448 15.18151048  5844
STARLINK-1320,45572,53.0533,0.0007206,15.55387351,396.1418160093963,405.91194699541666,1 45572U 20025AT  26009.43464677  .00042886  00000+0  62251-3 0  9996,2 45572  53.0533 275.2609 0007206 130.0157 230.1487 15.55387351317545
STARLINK-1321,45573,53.0554,0.0001835,15.39206978,447.20040530232745,449.7057638633687,1 45573U 20025AU  26010.00002315  .00065972  00000+0  16673-2 0  9996,2 45573  53.0554 337.3271 0001835  84.4852 123.3690 15.39206978  5843
STARLINK-1328,45576,53.0419,0.0002499,16.12907705,237.22508524401837,240.53226967961473,1 45576U 20025AX  26009.01696892  .01092096  77489-3  93904-3 0  9997,2 45576  53.0419 281.5524 0002499 224.9395 135.1438 16.12907705317404
STARLINK-1331,45578,53.0563,0.0001524,15.06390533,546.1851455395954,548.2960006238709,1 45578U 20025AZ  26009.20560529  .00002119  00000+0  16115-3 0  9993,2 45578  53.0563 343.6526 0001524  91.2587 268.8577 15.06390533316554
STARLINK-1333,45580,53.0909,0.0001054,15.14936318,520.4447127542708,521.8990870703719,1 45580U 20025BB  26010.00002315  .01501305  00000+0  72525-1 0  9997,2 45580  53.0909 349.9535 0001054  70.5255 317.5164 15.14936318  5791
STARLINK-1335,45581,53.0542,0.0001532,15.06394147,546.1685304510947,548.2904627456528,1 45581U 20025BC  26009.61473518  .00006592  00000+0  46113-3 0  9993,2 45581  53.0542 341.8167 0001532 101.9587 258.1573 15.06394147316603
STARLINK-1337,45582,53.0551,0.0002134,15.09064821,537.5801573767822,540.532415471429,1 45582U 20025BD  26010.00002315  .01871264  00000+0  10573+0 0  9996,2 45582  53.0551 340.0747 0002134 103.2026  76.1337 15.09064821  5743
STARLINK-1347,45586,53.0524,0.0005635,15.4346457,432.05366284038064,439.7330750661904,1 45586U 20025BH  26009.16072693  .00068859  00000+0  15093-2 0  9993,2 45586  53.0524 314.3438 0005635  85.8362 274.3287 15.43464570316941
STARLINK-1364,45589,53.0544,0.0002346,15.11924213,528.7114861038535,531.9529398585837,1 45589U 20025BL  26010.00002315  .00020903  00000+0  12196-2 0  9994,2 45589  53.0544 340.0493 0002346  75.6070  95.2009 15.11924213  5848
STARLINK-1365,45590,53.0559,0.0001515,15.0694078,544.50570150966,546.6035800768204,1 45590U 20025BM  26008.46138156  .00068902  00000+0  45330-2 0  9993,2 45590  53.0559  16.9859 0001515  59.1307 300.9831 15.06940780316023
STARLINK-1443,45660,53.0557,0.0001412,15.06411536,546.1983477612748,548.154056209516,1 45660U 20035D   26009.17702267  .00006066  00000+0  42563-3 0  9990,2 45660  53.0557 333.7811 0001412  95.0011 265.1139 15.06411536309762
